{"type": "FeatureCollection", "features": [ {"type": "Feature", "properties": {"norad_id": 44542, "name": "BEIDOU-3 M24 (C46)", "group": "gnss", "lat": 12.556874240305739, "lon": -162.2191430177667, "alt_km": 21500.52647169895, "timestamp": "2025-12-25T07:00:34.289739+00:00", "meta": {"OBJECT_NAME": "BEIDOU-3 M24 (C46)", "OBJECT_ID": "2019-061A", "EPOCH": "2025-12-24T04:40:53.254848", "MEAN_MOTION": 1.86229374, "ECCENTRICITY": 0.00095879, "INCLINATION": 54.4008, "RA_OF_ASC_NODE": 188.6295, "ARG_OF_PERICENTER": 26.2162, "MEAN_ANOMALY": 333.8692, "EPHEMERIS_TYPE": 0, "CLASSIFICATION_TYPE": "U", "NORAD_CAT_ID": 44542, "ELEMENT_SET_NO": 999, "REV_AT_EPOCH": 4253, "BSTAR": 0, "MEAN_MOTION_DOT": 1.02e-06, "MEAN_MOTION_DDOT": 0}, "tle": {"line1": "1 44542U 19061A   25358.19506082  .00000102  00000+0  00000+0 0  9991", "line2": "2 44542  54.4008 188.6295 0009587  26.2162 333.8692  1.86229374 42539"}}, "geometry": {"type": "Point", "coordinates": [-162.2191430177667, 12.556874240305739]}}, {"type": "Feature", "properties": {"norad_id": 44543, "name": "BEIDOU-3 M23 (C45)", "group": "gnss", "lat": -50.55967282536765, "lon": 127.9540585354151, "alt_km": 21536.292033339756, "timestamp": "2025-12-25T07:00:34.289751+00:00", "meta": {"OBJECT_NAME": "BEIDOU-3 M23 (C45)", "OBJECT_ID": "2019-061B", "EPOCH": "2025-12-24T07:52:57.624672", "MEAN_MOTION": 1.86227549, "ECCENTRICITY": 0.00060312, "INCLINATION": 54.3996, "RA_OF_ASC_NODE": 188.5933, "ARG_OF_PERICENTER": 26.11, "MEAN_ANOMALY": 336.0921, "EPHEMERIS_TYPE": 0, "CLASSIFICATION_TYPE": "U", "NORAD_CAT_ID": 44543, "ELEMENT_SET_NO": 999, "REV_AT_EPOCH": 4254, "BSTAR": 0, "MEAN_MOTION_DOT": 1.03e-06, "MEAN_MOTION_DDOT": 0}, "tle": {"line1": "1 44543U 19061B   25358.32844473  .00000103  00000+0  00000+0 0  9997", "line2": "2 44543  54.3996 188.5933 0006031  26.1100 336.0921  1.86227549 42548"}}, "geometry": {"type": "Point", "coordinates": [127.9540585354151, -50.55967282536765]}}, {"type": "Feature", "properties": {"norad_id": 44624, "name": "EUTELSAT 5 WEST B (EGNOS/PRN 121)", "group": "gnss", "lat": -0.03398450119891387, "lon": -165.84347784550283, "alt_km": 35783.57561443962, "timestamp": "2025-12-25T07:00:34.289763+00:00", "meta": {"OBJECT_NAME": "EUTELSAT 5 WEST B (EGNOS/PRN 121)", "OBJECT_ID": "2019-067A", "EPOCH": "2025-12-24T21:38:07.024416", "MEAN_MOTION": 1.00271315, "ECCENTRICITY": 0.0003135, "INCLINATION": 0.063, "RA_OF_ASC_NODE": 343.8095, "ARG_OF_PERICENTER": 288.8779, "MEAN_ANOMALY": 140.5133, "EPHEMERIS_TYPE": 0, "CLASSIFICATION_TYPE": "U", "NORAD_CAT_ID": 44624, "ELEMENT_SET_NO": 999, "REV_AT_EPOCH": 2268, "BSTAR": 0, "MEAN_MOTION_DOT": -2.1e-07, "MEAN_MOTION_DDOT": 0}, "tle": {"line1": "1 44624U 19067A   25358.90147019 -.00000021  00000+0  00000+0 0  9999", "line2": "2 44624   0.0630 343.8095 0003135 288.8779 140.5133  1.00271315 22689"}}, "geometry": {"type": "Point", "coordinates": [-165.84347784550283, -0.03398450119891387]}}, {"type": "Feature", "properties": {"norad_id": 44793, "name": "BEIDOU-3 M22 (C44)", "group": "gnss", "lat": 42.85687207137907, "lon": 83.75156800560822, "alt_km": 21525.352991861226, "timestamp": "2025-12-25T07:00:34.289774+00:00", "meta": {"OBJECT_NAME": "BEIDOU-3 M22 (C44)", "OBJECT_ID": "2019-078A", "EPOCH": "2025-12-22T23:04:03.320256", "MEAN_MOTION": 1.86232206, "ECCENTRICITY": 0.00060944, "INCLINATION": 54.0989, "RA_OF_ASC_NODE": 306.0279, "ARG_OF_PERICENTER": 24.0205, "MEAN_ANOMALY": 336.0117, "EPHEMERIS_TYPE": 0, "CLASSIFICATION_TYPE": "U", "NORAD_CAT_ID": 44793, "ELEMENT_SET_NO": 999, "REV_AT_EPOCH": 4136, "BSTAR": 0, "MEAN_MOTION_DOT": -5.4e-07, "MEAN_MOTION_DDOT": 0}, "tle": {"line1": "1 44793U 19078A   25356.96114954 -.00000054  00000+0  00000+0 0  9990", "line2": "2 44793  54.0989 306.0279 0006094  24.0205 336.0117  1.86232206 41368"}}, "geometry": {"type": "Point", "coordinates": [83.75156800560822, 42.85687207137907]}}, {"type": "Feature", "properties": {"norad_id": 44794, "name": "BEIDOU-3 M21 (C43)", "group": "gnss", "lat": 24.119435768208948, "lon": -35.181943355269645, "alt_km": 21514.08003038691, "timestamp": "2025-12-25T07:00:34.289792+00:00", "meta": {"OBJECT_NAME": "BEIDOU-3 M21 (C43)", "OBJECT_ID": "2019-078B", "EPOCH": "2025-12-24T04:09:05.806368", "MEAN_MOTION": 1.86227908, "ECCENTRICITY": 0.00042661, "INCLINATION": 54.0712, "RA_OF_ASC_NODE": 305.9502, "ARG_OF_PERICENTER": 12.8462, "MEAN_ANOMALY": 347.1724, "EPHEMERIS_TYPE": 0, "CLASSIFICATION_TYPE": "U", "NORAD_CAT_ID": 44794, "ELEMENT_SET_NO": 999, "REV_AT_EPOCH": 4139, "BSTAR": 0, "MEAN_MOTION_DOT": -5.2e-07, "MEAN_MOTION_DDOT": 0}, "tle": {"line1": "1 44794U 19078B   25358.17298387 -.00000052  00000+0  00000+0 0  9997", "line2": "2 44794  54.0712 305.9502 0004266  12.8462 347.1724  1.86227908 41392"}}, "geometry": {"type": "Point", "coordinates": [-35.181943355269645, 24.119435768208948]}}, {"type": "Feature", "properties": {"norad_id": 44850, "name": "COSMOS 2544 (759)", "group": "gnss", "lat": -64.98493848437533, "lon": 1.7759970445356978, "alt_km": 19103.329224664765, "timestamp": "2025-12-25T07:00:34.289805+00:00", "meta": {"OBJECT_NAME": "COSMOS 2544 (759)", "OBJECT_ID": "2019-088A", "EPOCH": "2025-12-23T01:21:04.162752", "MEAN_MOTION": 2.13102153, "ECCENTRICITY": 0.0014323, "INCLINATION": 65.465, "RA_OF_ASC_NODE": 79.6136, "ARG_OF_PERICENTER": 250.3939, "MEAN_ANOMALY": 109.4967, "EPHEMERIS_TYPE": 0, "CLASSIFICATION_TYPE": "U", "NORAD_CAT_ID": 44850, "ELEMENT_SET_NO": 999, "REV_AT_EPOCH": 4696, "BSTAR": 0, "MEAN_MOTION_DOT": 1e-08, "MEAN_MOTION_DDOT": 0}, "tle": {"line1": "1 44850U 19088A   25357.05629818  .00000001  00000+0  00000+0 0  9997", "line2": "2 44850  65.4650  79.6136 0014323 250.3939 109.4967  2.13102153 46964"}}, "geometry": {"type": "Point", "coordinates": [1.7759970445356978, -64.98493848437533]}}, {"type": "Feature", "properties": {"norad_id": 44864, "name": "BEIDOU-3 M19 (C41)", "group": "gnss", "lat": -36.79919372051223, "lon": -81.65717722678095, "alt_km": 21506.16885687937, "timestamp": "2025-12-25T07:00:34.289817+00:00", "meta": {"OBJECT_NAME": "BEIDOU-3 M19 (C41)", "OBJECT_ID": "2019-090A", "EPOCH": "2025-12-24T13:05:33.212256", "MEAN_MOTION": 1.86231537, "ECCENTRICITY": 0.00184016, "INCLINATION": 56.4026, "RA_OF_ASC_NODE": 68.5704, "ARG_OF_PERICENTER": 285.2046, "MEAN_ANOMALY": 160.4424, "EPHEMERIS_TYPE": 0, "CLASSIFICATION_TYPE": "U", "NORAD_CAT_ID": 44864, "ELEMENT_SET_NO": 999, "REV_AT_EPOCH": 4098, "BSTAR": 0, "MEAN_MOTION_DOT": -2.5e-07, "MEAN_MOTION_DDOT": 0}, "tle": {"line1": "1 44864U 19090A   25358.54552329 -.00000025  00000+0  00000+0 0  9999", "line2": "2 44864  56.4026  68.5704 0018401 285.2046 160.4424  1.86231537 40980"}}, "geometry": {"type": "Point", "coordinates": [-81.65717722678095, -36.79919372051223]}}, {"type": "Feature", "properties": {"norad_id": 44865, "name": "BEIDOU-3 M20 (C42)", "group": "gnss", "lat": -35.517021323413424, "lon": 40.313174335663625, "alt_km": 21491.342184113204, "timestamp": "2025-12-25T07:00:34.289830+00:00", "meta": {"OBJECT_NAME": "BEIDOU-3 M20 (C42)", "OBJECT_ID": "2019-090B", "EPOCH": "2025-12-24T09:14:17.322144", "MEAN_MOTION": 1.86231611, "ECCENTRICITY": 0.00155264, "INCLINATION": 56.4041, "RA_OF_ASC_NODE": 68.61, "ARG_OF_PERICENTER": 297.3537, "MEAN_ANOMALY": 130.233, "EPHEMERIS_TYPE": 0, "CLASSIFICATION_TYPE": "U", "NORAD_CAT_ID": 44865, "ELEMENT_SET_NO": 999, "REV_AT_EPOCH": 4096, "BSTAR": 0, "MEAN_MOTION_DOT": -2.4e-07, "MEAN_MOTION_DDOT": 0}, "tle": {"line1": "1 44865U 19090B   25358.38492271 -.00000024  00000+0  00000+0 0  9990", "line2": "2 44865  56.4041  68.6100 0015526 297.3537 130.2330  1.86231611 40965"}}, "geometry": {"type": "Point", "coordinates": [40.313174335663625, -35.517021323413424]}}, {"type": "Feature", "properties": {"norad_id": 45344, "name": "BEIDOU-3 G2 (C60)", "group": "gnss", "lat": -2.0856049023028524, "lon": -80.78910724834367, "alt_km": 35777.26107014202, "timestamp": "2025-12-25T07:00:34.289844+00:00", "meta": {"OBJECT_NAME": "BEIDOU-3 G2 (C60)", "OBJECT_ID": "2020-017A", "EPOCH": "2025-12-24T22:45:15.683616", "MEAN_MOTION": 1.00272341, "ECCENTRICITY": 0.00021155, "INCLINATION": 2.5185, "RA_OF_ASC_NODE": 44.1137, "ARG_OF_PERICENTER": 237.1271, "MEAN_ANOMALY": 233.8352, "EPHEMERIS_TYPE": 0, "CLASSIFICATION_TYPE": "U", "NORAD_CAT_ID": 45344, "ELEMENT_SET_NO": 999, "REV_AT_EPOCH": 2151, "BSTAR": 0, "MEAN_MOTION_DOT": -1.2e-06, "MEAN_MOTION_DDOT": 0}, "tle": {"line1": "1 45344U 20017A   25358.94809819 -.00000120  00000+0  00000+0 0  9993", "line2": "2 45344   2.5185  44.1137 0002115 237.1271 233.8352  1.00272341 21510"}}, "geometry": {"type": "Point", "coordinates": [-80.78910724834367, -2.0856049023028524]}}, {"type": "Feature", "properties": {"norad_id": 45358, "name": "COSMOS 2545 (760)", "group": "gnss", "lat": 47.7523978610352, "lon": 106.78099561726991, "alt_km": 19141.258723346175, "timestamp": "2025-12-25T07:00:34.289858+00:00", "meta": {"OBJECT_NAME": "COSMOS 2545 (760)", "OBJECT_ID": "2020-018A", "EPOCH": "2025-12-24T15:50:05.920800", "MEAN_MOTION": 2.13102682, "ECCENTRICITY": 0.00113116, "INCLINATION": 64.4626, "RA_OF_ASC_NODE": 318.552, "ARG_OF_PERICENTER": 250.6883, "MEAN_ANOMALY": 109.1918, "EPHEMERIS_TYPE": 0, "CLASSIFICATION_TYPE": "U", "NORAD_CAT_ID": 45358, "ELEMENT_SET_NO": 999, "REV_AT_EPOCH": 4494, "BSTAR": 0, "MEAN_MOTION_DOT": -3.4e-07, "MEAN_MOTION_DDOT": 0}, "tle": {"line1": "1 45358U 20018A   25358.65979075 -.00000034  00000+0  00000+0 0  9993", "line2": "2 45358  64.4626 318.5520 0011311 250.6883 109.1918  2.13102682 44943"}}, "geometry": {"type": "Point", "coordinates": [106.78099561726991, 47.7523978610352]}}]}